*******************************************************************************
Ephemeris / WWW_USER Mon Mar 24 08:20:21 2025 Pasadena, USA      / Horizons    
*******************************************************************************
Target body name: (2018 VA2)                      {source: JPL#8}
Center body name: Earth (399)                     {source: DE441}
Center-site name: Mauna Kea
*******************************************************************************
Start time      : A.D. 2018-Dec-24 03:59:00.0000 UT      
Stop  time      : A.D. 2018-Dec-24 16:43:00.0000 UT      
Step-size       : 1 minutes
*******************************************************************************
Target pole/equ : undefined
Target radii    : undefined                                                    
Center geodetic : 204.5278, 19.8260847, 4.21024   {E-lon(deg),Lat(deg),Alt(km)}
Center cylindric: 204.5278, 6006.35451, 2151.0229 {E-lon(deg),Dxy(km),Dz(km)}
Center pole/equ : ITRF93                          {East-longitude positive}
Center radii    : 6378.137, 6378.137, 6356.752 km {Equator_a, b, pole_c}       
Target primary  : Sun
Vis. interferer : MOON (R_eq= 1737.400) km        {source: DE441}
Rel. light bend : Sun                             {source: DE441}
Rel. lght bnd GM: 1.3271E+11 km^3/s^2                                          
Small-body perts: Yes                             {source: SB441-N16}
Atmos refraction: NO (AIRLESS)
RA format       : HMS
Time format     : CAL 
Calendar mode   : Mixed Julian/Gregorian
RTS-only print  : NO       
EOP file        : eop.250321.p250617                                           
EOP coverage    : DATA-BASED 1962-JAN-20 TO 2025-MAR-21. PREDICTS-> 2025-JUN-16
Units conversion: 1 au= 149597870.700 km, c= 299792.458 km/s, 1 day= 86400.0 s 
Table cut-offs 1: Elevation (-90.0deg=NO ),Airmass (>38.000=NO), Daylight (YES)
Table cut-offs 2: Solar elongation (  0.0,180.0=NO ),Local Hour Angle( 0.0=NO )
Table cut-offs 3: RA/DEC angular rate (     0.0=NO )                           
*******************************************************************************
Initial IAU76/J2000 heliocentric ecliptic osculating elements (au, days, deg.):
  EPOCH=  2458428.5 ! 2018-Nov-06.00 (TDB)         Residual RMS= .39675        
   EC= .3242664208426159   QR= .935847567628844    TP= 2458464.9625425939      
   OM= 226.0068906557846   W=  220.7446970607937   IN= 3.947636678272312       
  Equivalent ICRF heliocentric cartesian coordinates (au, au/d):
   X= 7.314601530918681E-01  Y= 6.289465658343808E-01  Z= 2.763726037901882E-01
  VX=-1.554701504922309E-02 VY= 1.109318211007817E-02 VZ= 3.366540373951610E-03
Asteroid physical parameters (km, seconds, rotational period in hours):        
   GM= n.a.                RAD= n.a.               ROTPER= n.a.                
   H= 27.08                G= .150                 B-V= n.a.                   
                           ALBEDO= n.a.            STYP= n.a.                  
*******************************************************************************
 Date__(UT)__HR:MN     R.A._________(ICRF)_________DEC
******************************************************
$$SOE
 2018-Dec-24 16:17 Nm  12 57 51.952137 -25 45 44.29396
 2018-Dec-24 16:18 Nm  12 57 52.000802 -25 45 44.49292
 2018-Dec-24 16:19 Nm  12 57 52.049453 -25 45 44.69149
 2018-Dec-24 16:20 Nm  12 57 52.098089 -25 45 44.88966
 2018-Dec-24 16:21 Nm  12 57 52.146712 -25 45 45.08744
 2018-Dec-24 16:22 Nm  12 57 52.195322 -25 45 45.28483
 2018-Dec-24 16:23 Nm  12 57 52.243918 -25 45 45.48183
 2018-Dec-24 16:24 Nm  12 57 52.292502 -25 45 45.67843
 2018-Dec-24 16:25 Nm  12 57 52.341073 -25 45 45.87464
 2018-Dec-24 16:26 Nm  12 57 52.389632 -25 45 46.07045
 2018-Dec-24 16:27 Nm  12 57 52.438179 -25 45 46.26587
 2018-Dec-24 16:28 Nm  12 57 52.486714 -25 45 46.46090
 2018-Dec-24 16:29 Nm  12 57 52.535238 -25 45 46.65553
 2018-Dec-24 16:30 Cm  12 57 52.583751 -25 45 46.84976
 2018-Dec-24 16:31 Cm  12 57 52.632253 -25 45 47.04360
 2018-Dec-24 16:32 Cm  12 57 52.680745 -25 45 47.23704
 2018-Dec-24 16:33 Cm  12 57 52.729226 -25 45 47.43009
 2018-Dec-24 16:34 Cm  12 57 52.777698 -25 45 47.62274
 2018-Dec-24 16:35 Cm  12 57 52.826160 -25 45 47.81499
 2018-Dec-24 16:36 Cm  12 57 52.874612 -25 45 48.00685
 2018-Dec-24 16:37 Cm  12 57 52.923056 -25 45 48.19831
 2018-Dec-24 16:38 Cm  12 57 52.971491 -25 45 48.38937
 2018-Dec-24 16:39 Cm  12 57 53.019918 -25 45 48.58004
 2018-Dec-24 16:40 Cm  12 57 53.068336 -25 45 48.77031
 2018-Dec-24 16:41 Cm  12 57 53.116747 -25 45 48.96018
 2018-Dec-24 16:42 Cm  12 57 53.165150 -25 45 49.14965
 2018-Dec-24 16:43 Cm  12 57 53.213546 -25 45 49.33872
